[{"OBJECT_NAME":"STARLINK-37159","OBJECT_ID":"2026-055Y","EPOCH":"2026-03-27T20:00:01.999008","MEAN_MOTION":16.00086045,"ECCENTRICITY":7.61e-5,"INCLINATION":53.1581,"RA_OF_ASC_NODE":246.6728,"ARG_OF_PERICENTER":79.6142,"MEAN_ANOMALY":40.3567,"EPHEMERIS_TYPE":0,"CLASSIFICATION_TYPE":"U","NORAD_CAT_ID":68284,"ELEMENT_SET_NO":999,"REV_AT_EPOCH":255,"BSTAR":-0.0022896,"MEAN_MOTION_DOT":-0.01207447,"MEAN_MOTION_DDOT":0.00046797},{"OBJECT_NAME":"STARLINK-36725","OBJECT_ID":"2026-055Z","EPOCH":"2026-03-27T20:00:01.999008","MEAN_MOTION":16.00199579,"ECCENTRICITY":7.86e-5,"INCLINATION":53.1578,"RA_OF_ASC_NODE":246.6673,"ARG_OF_PERICENTER":66.727,"MEAN_ANOMALY":55.6936,"EPHEMERIS_TYPE":0,"CLASSIFICATION_TYPE":"U","NORAD_CAT_ID":68285,"ELEMENT_SET_NO":999,"REV_AT_EPOCH":255,"BSTAR":-0.0022763,"MEAN_MOTION_DOT":-0.0120825,"MEAN_MOTION_DDOT":0.00046911},{"OBJECT_NAME":"STARLINK-36998","OBJECT_ID":"2026-055AA","EPOCH":"2026-03-27T20:00:01.999008","MEAN_MOTION":16.00474705,"ECCENTRICITY":7.78e-5,"INCLINATION":53.1586,"RA_OF_ASC_NODE":246.6558,"ARG_OF_PERICENTER":77.0937,"MEAN_ANOMALY":51.4723,"EPHEMERIS_TYPE":0,"CLASSIFICATION_TYPE":"U","NORAD_CAT_ID":68286,"ELEMENT_SET_NO":999,"REV_AT_EPOCH":255,"BSTAR":-0.0022619,"MEAN_MOTION_DOT":-0.01219595,"MEAN_MOTION_DDOT":0.00047857},{"OBJECT_NAME":"STARLINK-37165","OBJECT_ID":"2026-055AB","EPOCH":"2026-03-27T20:00:01.999008","MEAN_MOTION":16.00598488,"ECCENTRICITY":6.8e-5,"INCLINATION":53.1582,"RA_OF_ASC_NODE":246.6485,"ARG_OF_PERICENTER":62.1113,"MEAN_ANOMALY":69.2996,"EPHEMERIS_TYPE":0,"CLASSIFICATION_TYPE":"U","NORAD_CAT_ID":68287,"ELEMENT_SET_NO":999,"REV_AT_EPOCH":255,"BSTAR":-0.0022336,"MEAN_MOTION_DOT":-0.01213051,"MEAN_MOTION_DDOT":0.00047455},{"OBJECT_NAME":"STARLINK-37016","OBJECT_ID":"2026-055AC","EPOCH":"2026-03-27T20:00:01.999008","MEAN_MOTION":16.00328432,"ECCENTRICITY":8.0e-5,"INCLINATION":53.158,"RA_OF_ASC_NODE":246.6615,"ARG_OF_PERICENTER":62.7923,"MEAN_ANOMALY":62.5213,"EPHEMERIS_TYPE":0,"CLASSIFICATION_TYPE":"U","NORAD_CAT_ID":68288,"ELEMENT_SET_NO":999,"REV_AT_EPOCH":255,"BSTAR":-0.0022668,"MEAN_MOTION_DOT":-0.01212108,"MEAN_MOTION_DDOT":0.00047249},{"OBJECT_NAME":"STARLINK-37010","OBJECT_ID":"2026-055AD","EPOCH":"2026-03-27T20:00:01.999008","MEAN_MOTION":16.00716505,"ECCENTRICITY":7.54e-5,"INCLINATION":53.1583,"RA_OF_ASC_NODE":246.6428,"ARG_OF_PERICENTER":72.5404,"MEAN_ANOMALY":61.3608,"EPHEMERIS_TYPE":0,"CLASSIFICATION_TYPE":"U","NORAD_CAT_ID":68289,"ELEMENT_SET_NO":999,"REV_AT_EPOCH":255,"BSTAR":-0.0022127,"MEAN_MOTION_DOT":-0.01209961,"MEAN_MOTION_DDOT":0.00047296},{"OBJECT_NAME":"STARLINK-37151","OBJECT_ID":"2026-055AE","EPOCH":"2026-03-27T20:00:01.999008","MEAN_MOTION":16.00812672,"ECCENTRICITY":8.43e-5,"INCLINATION":53.1579,"RA_OF_ASC_NODE":246.6388,"ARG_OF_PERICENTER":73.7722,"MEAN_ANOMALY":62.3081,"EPHEMERIS_TYPE":0,"CLASSIFICATION_TYPE":"U","NORAD_CAT_ID":68290,"ELEMENT_SET_NO":999,"REV_AT_EPOCH":255,"BSTAR":-0.0021516,"MEAN_MOTION_DOT":-0.01183439,"MEAN_MOTION_DDOT":0.00045476},{"OBJECT_NAME":"STRIX-6","OBJECT_ID":"2026-056A","EPOCH":"2026-03-27T20:18:47.916288","MEAN_MOTION":14.99591176,"ECCENTRICITY":0.0016634,"INCLINATION":50.2841,"RA_OF_ASC_NODE":14.141,"ARG_OF_PERICENTER":292.3463,"MEAN_ANOMALY":67.5723,"EPHEMERIS_TYPE":0,"CLASSIFICATION_TYPE":"U","NORAD_CAT_ID":68291,"ELEMENT_SET_NO":999,"REV_AT_EPOCH":106,"BSTAR":0.00038833,"MEAN_MOTION_DOT":4.584e-5,"MEAN_MOTION_DDOT":0},{"OBJECT_NAME":"ELECTRON R/B","OBJECT_ID":"2026-056B","EPOCH":"2026-03-27T04:31:08.133312","MEAN_MOTION":15.88166201,"ECCENTRICITY":0.02080105,"INCLINATION":50.2623,"RA_OF_ASC_NODE":13.4891,"ARG_OF_PERICENTER":276.1043,"MEAN_ANOMALY":81.6279,"EPHEMERIS_TYPE":0,"CLASSIFICATION_TYPE":"U","NORAD_CAT_ID":68292,"ELEMENT_SET_NO":999,"REV_AT_EPOCH":101,"BSTAR":0.0010543304,"MEAN_MOTION_DOT":0.02373454,"MEAN_MOTION_DDOT":1.0794239e-5},{"OBJECT_NAME":"ELECTRON KICK STAGE R/B","OBJECT_ID":"2026-056C","EPOCH":"2026-03-27T19:08:15.067104","MEAN_MOTION":15.39392776,"ECCENTRICITY":0.0158179,"INCLINATION":50.2923,"RA_OF_ASC_NODE":12.3219,"ARG_OF_PERICENTER":39.1594,"MEAN_ANOMALY":322.0693,"EPHEMERIS_TYPE":0,"CLASSIFICATION_TYPE":"U","NORAD_CAT_ID":68293,"ELEMENT_SET_NO":999,"REV_AT_EPOCH":109,"BSTAR":0.0014817,"MEAN_MOTION_DOT":0.00092559,"MEAN_MOTION_DDOT":0},{"OBJECT_NAME":"STARLINK-37107","OBJECT_ID":"2026-057A","EPOCH":"2026-03-27T20:00:01.999008","MEAN_MOTION":16.03415676,"ECCENTRICITY":0.0001317,"INCLINATION":97.282,"RA_OF_ASC_NODE":209.8563,"ARG_OF_PERICENTER":74.1987,"MEAN_ANOMALY":137.8943,"EPHEMERIS_TYPE":0,"CLASSIFICATION_TYPE":"U","NORAD_CAT_ID":68294,"ELEMENT_SET_NO":999,"REV_AT_EPOCH":207,"BSTAR":-0.0015558,"MEAN_MOTION_DOT":-0.00957754,"MEAN_MOTION_DDOT":0.00031474},{"OBJECT_NAME":"STARLINK-37147","OBJECT_ID":"2026-057B","EPOCH":"2026-03-27T20:00:01.999008","MEAN_MOTION":16.03509246,"ECCENTRICITY":0.0001223,"INCLINATION":97.2818,"RA_OF_ASC_NODE":209.857,"ARG_OF_PERICENTER":75.2907,"MEAN_ANOMALY":138.7385,"EPHEMERIS_TYPE":0,"CLASSIFICATION_TYPE":"U","NORAD_CAT_ID":68295,"ELEMENT_SET_NO":999,"REV_AT_EPOCH":206,"BSTAR":-0.0015368,"MEAN_MOTION_DOT":-0.00951343,"MEAN_MOTION_DDOT":0.0003112},{"OBJECT_NAME":"STARLINK-37142","OBJECT_ID":"2026-057C","EPOCH":"2026-03-27T20:00:01.999008","MEAN_MOTION":16.03866506,"ECCENTRICITY":0.0001255,"INCLINATION":97.2816,"RA_OF_ASC_NODE":209.8595,"ARG_OF_PERICENTER":72.2279,"MEAN_ANOMALY":148.0474,"EPHEMERIS_TYPE":0,"CLASSIFICATION_TYPE":"U","NORAD_CAT_ID":68296,"ELEMENT_SET_NO":999,"REV_AT_EPOCH":195,"BSTAR":-0.0014993,"MEAN_MOTION_DOT":-0.00948055,"MEAN_MOTION_DDOT":0.00031052},{"OBJECT_NAME":"STARLINK-37115","OBJECT_ID":"2026-057D","EPOCH":"2026-03-27T20:00:01.999008","MEAN_MOTION":16.03766866,"ECCENTRICITY":0.0001274,"INCLINATION":97.2814,"RA_OF_ASC_NODE":209.858,"ARG_OF_PERICENTER":89.0272,"MEAN_ANOMALY":129.355,"EPHEMERIS_TYPE":0,"CLASSIFICATION_TYPE":"U","NORAD_CAT_ID":68297,"ELEMENT_SET_NO":999,"REV_AT_EPOCH":195,"BSTAR":-0.0015389,"MEAN_MOTION_DOT":-0.0096718,"MEAN_MOTION_DDOT":0.00032184},{"OBJECT_NAME":"STARLINK-36355","OBJECT_ID":"2026-057E","EPOCH":"2026-03-27T20:00:01.999008","MEAN_MOTION":16.03626227,"ECCENTRICITY":0.0001136,"INCLINATION":97.2817,"RA_OF_ASC_NODE":209.8575,"ARG_OF_PERICENTER":93.6405,"MEAN_ANOMALY":122.3213,"EPHEMERIS_TYPE":0,"CLASSIFICATION_TYPE":"U","NORAD_CAT_ID":68298,"ELEMENT_SET_NO":999,"REV_AT_EPOCH":222,"BSTAR":-0.0015462,"MEAN_MOTION_DOT":-0.00963708,"MEAN_MOTION_DDOT":0.00031917},{"OBJECT_NAME":"STARLINK-37118","OBJECT_ID":"2026-057F","EPOCH":"2026-03-27T20:00:01.999008","MEAN_MOTION":16.04127943,"ECCENTRICITY":0.0001177,"INCLINATION":97.281,"RA_OF_ASC_NODE":209.8609,"ARG_OF_PERICENTER":85.0933,"MEAN_ANOMALY":139.5477,"EPHEMERIS_TYPE":0,"CLASSIFICATION_TYPE":"U","NORAD_CAT_ID":68299,"ELEMENT_SET_NO":999,"REV_AT_EPOCH":206,"BSTAR":-0.0014997,"MEAN_MOTION_DOT":-0.00963029,"MEAN_MOTION_DDOT":0.00032066}]
