STARLINK-37159          
1 68284U 26055Y   26086.83335647 -.01207447  46797-3 -22896-2 0  9999
2 68284  53.1581 246.6728 0000761  79.6142  40.3567 16.00086045  2558
STARLINK-36725          
1 68285U 26055Z   26086.83335647 -.01208250  46911-3 -22763-2 0  9994
2 68285  53.1578 246.6673 0000786  66.7270  55.6936 16.00199579  2556
STARLINK-36998          
1 68286U 26055AA  26086.83335647 -.01219595  47857-3 -22619-2 0  9999
2 68286  53.1586 246.6558 0000778  77.0937  51.4723 16.00474705  2559
STARLINK-37165          
1 68287U 26055AB  26086.83335647 -.01213051  47455-3 -22336-2 0  9991
2 68287  53.1582 246.6485 0000680  62.1113  69.2996 16.00598488  2552
STARLINK-37016          
1 68288U 26055AC  26086.83335647 -.01212108  47249-3 -22668-2 0  9993
2 68288  53.1580 246.6615 0000800  62.7923  62.5213 16.00328432  2553
STARLINK-37010          
1 68289U 26055AD  26086.83335647 -.01209961  47296-3 -22127-2 0  9999
2 68289  53.1583 246.6428 0000754  72.5404  61.3608 16.00716505  2557
STARLINK-37151          
1 68290U 26055AE  26086.83335647 -.01183439  45476-3 -21516-2 0  9991
2 68290  53.1579 246.6388 0000843  73.7722  62.3081 16.00812672  2552
STRIX-6                 
1 68291U 26056A   26086.84638792  .00004584  00000+0  38833-3 0  9992
2 68291  50.2841  14.1410 0016634 292.3463  67.5723 14.99591176  1067
ELECTRON R/B            
1 68292U 26056B   26086.18828858  .02373454  10794-4  10543-2 0  9994
2 68292  50.2623  13.4891 0208010 276.1043  81.6279 15.88166201  1010
ELECTRON KICK STAGE R/B 
1 68293U 26056C   26086.79739661  .00092559  00000+0  14817-2 0  9999
2 68293  50.2923  12.3219 0158179  39.1594 322.0693 15.39392776  1098
STARLINK-37107          
1 68294U 26057A   26086.83335647 -.00957754  31474-3 -15558-2 0  9997
2 68294  97.2820 209.8563 0001317  74.1987 137.8943 16.03415676  2073
STARLINK-37147          
1 68295U 26057B   26086.83335647 -.00951343  31120-3 -15368-2 0  9993
2 68295  97.2818 209.8570 0001223  75.2907 138.7385 16.03509246  2065
STARLINK-37142          
1 68296U 26057C   26086.83335647 -.00948055  31052-3 -14993-2 0  9997
2 68296  97.2816 209.8595 0001255  72.2279 148.0474 16.03866506  1950
STARLINK-37115          
1 68297U 26057D   26086.83335647 -.00967180  32184-3 -15389-2 0  9995
2 68297  97.2814 209.8580 0001274  89.0272 129.3550 16.03766866  1958
STARLINK-36355          
1 68298U 26057E   26086.83335647 -.00963708  31917-3 -15462-2 0  9993
2 68298  97.2817 209.8575 0001136  93.6405 122.3213 16.03626227  2228
STARLINK-37118          
1 68299U 26057F   26086.83335647 -.00963029  32066-3 -14997-2 0  9998
2 68299  97.2810 209.8609 0001177  85.0933 139.5477 16.04127943  2062
